[{"OBJECT_NAME":"UHETSAT","OBJECT_ID":"2023-185E","EPOCH":"2026-03-09T22:39:26.455680","MEAN_MOTION":15.29797662,"ECCENTRICITY":0.00118435,"INCLINATION":97.3584,"RA_OF_ASC_NODE":137.3576,"ARG_OF_PERICENTER":307.7346,"MEAN_ANOMALY":52.2821,"EPHEMERIS_TYPE":0,"CLASSIFICATION_TYPE":"U","NORAD_CAT_ID":58466,"ELEMENT_SET_NO":999,"REV_AT_EPOCH":12611,"BSTAR":0.00030513019,"MEAN_MOTION_DOT":8.749e-5,"MEAN_MOTION_DDOT":0},{"OBJECT_NAME":"STARLINK-35113","OBJECT_ID":"2025-212X","EPOCH":"2026-03-09T23:33:37.317024","MEAN_MOTION":15.30225096,"ECCENTRICITY":0.00015408,"INCLINATION":53.1596,"RA_OF_ASC_NODE":343.9297,"ARG_OF_PERICENTER":140.2746,"MEAN_ANOMALY":219.8368,"EPHEMERIS_TYPE":0,"CLASSIFICATION_TYPE":"U","NORAD_CAT_ID":65697,"ELEMENT_SET_NO":999,"REV_AT_EPOCH":2729,"BSTAR":0.0012702565,"MEAN_MOTION_DOT":0.00037482,"MEAN_MOTION_DDOT":0}]
